STARLINK-2141
1 47731U 21017K   26090.73535233  .00140358  00000+0  22560-2 0  9998
2 47731  53.1593  98.3792 0004085  64.7258 295.4175 15.52046559281272
